{"spkid": "20836356", "covariance": {"epoch": "2458523.5", "labels": ["e", "q", "tp", "node", "peri", "i", "A2"], "elements": [{"units": null, "value": ".3950361235376392", "title": "eccentricity", "name": "e", "sigma": 1.24787941976779e-07, "label": "e"}, {"label": "q", "sigma": 1.48190564085245e-07, "name": "q", "value": ".7203606643758595", "title": "perihelion distance", "units": "au"}, {"label": "tp", "sigma": 2.25272700047906e-05, "name": "tp", "title": "time of perihelion passage", "value": "2458568.996764000541", "units": "TDB"}, {"sigma": 7.98338826100835e-06, "name": "om", "value": "294.0891946858769", "title": "longitude of the ascending node", "units": "deg", "label": "node"}, {"label": "peri", "units": "deg", "value": "100.6953196121445", "title": "argument of perihelion", "sigma": 1.79553849639598e-05, "name": "w"}, {"label": "i", "units": "deg", "title": "inclination", "value": "7.098348586100666", "sigma": 5.95238666248424e-06, "name": "i"}], "data": [["1.557203046279985E-14", "-1.849235636730088E-14", "2.253832689856795E-12", "-1.573020267320431E-13", "1.986737231895121E-12", "-1.52988906713929E-13", "-5.558462577988581E-21"], ["-1.849235636730088E-14", "2.19604432839032E-14", "-2.675449414763857E-12", "1.866286882580884E-13", "-2.359240585489695E-12", "1.81458430287865E-13", "6.59931726573621E-21"], ["2.253832689856795E-12", "-2.675449414763857E-12", "5.074778938687386E-10", "-2.637313409656978E-11", "2.803585215050254E-10", "-2.123906844694812E-11", "-1.22721148382486E-18"], ["-1.573020267320431E-13", "1.866286882580884E-13", "-2.637313409656978E-11", "6.373448812600598E-11", "-8.220311695252694E-11", "4.246708155215488E-11", "6.256317702945905E-20"], ["1.986737231895121E-12", "-2.359240585489695E-12", "2.803585215050254E-10", "-8.220311695252694E-11", "3.223958492039919E-10", "-5.557283916781474E-11", "-6.775742416076144E-19"], ["-1.52988906713929E-13", "1.81458430287865E-13", "-2.123906844694812E-11", "4.246708155215488E-11", "-5.557283916781474E-11", "3.543090697972032E-11", "6.233020603623E-20"], ["-5.558462577988581E-21", "6.59931726573621E-21", "-1.22721148382486E-18", "6.256317702945905E-20", "-6.775742416076144E-19", "6.233020603623E-20", "3.008785086259347E-27"]]}, "elements": [{"units": null, "value": ".3948303342947866", "title": "eccentricity", "sigma": "1.2327E-7", "name": "e", "label": "e"}, {"label": "a", "sigma": "1.8417E-8", "name": "a", "title": "semi-major axis", "value": "1.189908892053126", "units": "au"}, {"sigma": "1.5592E-7", "name": "q", "title": "perihelion distance", "value": ".7200967664234509", "units": "au", "label": "q"}, {"units": "deg", "title": "inclination; angle with respect to x-y ecliptic plane", "value": "7.09717612314379", "sigma": "5.9514E-6", "name": "i", "label": "i"}, {"label": "node", "title": "longitude of the ascending node", "value": "293.9852559452501", "units": "deg", "name": "om", "sigma": "8.0823E-6"}, {"sigma": "1.7876E-5", "name": "w", "value": "100.8380982602996", "title": "argument of perihelion", "units": "deg", "label": "peri"}, {"name": "ma", "sigma": "7.6101E-6", "title": "mean anomaly", "value": "196.3244830818238", "units": "deg", "label": "M"}, {"label": "tp", "units": "TDB", "title": "time of perihelion passage", "value": "2461416.051084490729", "name": "tp", "sigma": "1.4771E-5"}, {"units": "d", "title": "sidereal orbital period", "value": "474.0989481979464", "sigma": "1.1007E-5", "name": "per", "label": "period"}, {"units": "deg/d", "value": ".7593351585536368", "title": "mean motion", "sigma": "1.7629E-8", "name": "n", "label": "n"}, {"name": "ad", "sigma": "2.5689E-8", "value": "1.659721017682801", "title": "aphelion distance", "units": "au", "label": "Q"}], "epoch": "2461200.5"}